{"type": "FeatureCollection", "features": [ {"type": "Feature", "properties": {"norad_id": 66687, "name": "TRANSPORTER-15X", "group": "last-30-days", "lat": -8.534754360098768, "lon": -109.07333347347156, "alt_km": 524.2917230362718, "timestamp": "2025-12-26T13:39:17.664269+00:00", "meta": {"OBJECT_NAME": "TRANSPORTER-15X", "OBJECT_ID": "2025-276X", "EPOCH": "2025-12-26T06:29:37.824288", "MEAN_MOTION": 15.16793442, "ECCENTRICITY": 0.00081022, "INCLINATION": 97.4384, "RA_OF_ASC_NODE": 71.7574, "ARG_OF_PERICENTER": 43.1354, "MEAN_ANOMALY": 317.0513, "EPHEMERIS_TYPE": 0, "CLASSIFICATION_TYPE": "U", "NORAD_CAT_ID": 66687, "ELEMENT_SET_NO": 999, "REV_AT_EPOCH": 417, "BSTAR": 0.0006798998, "MEAN_MOTION_DOT": 0.00013314, "MEAN_MOTION_DDOT": 0}, "tle": {"line1": "1 66687U 25276X   25360.27057667  .00013314  00000+0  67990-3 0  9996", "line2": "2 66687  97.4384  71.7574 0008102  43.1354 317.0513 15.16793442  4176"}}, "geometry": {"type": "Point", "coordinates": [-109.07333347347156, -8.534754360098768]}}, {"type": "Feature", "properties": {"norad_id": 66688, "name": "TRANSPORTER-15Y", "group": "last-30-days", "lat": -46.944581519460165, "lon": -115.9587938185862, "alt_km": 518.7438983333204, "timestamp": "2025-12-26T13:39:17.664281+00:00", "meta": {"OBJECT_NAME": "TRANSPORTER-15Y", "OBJECT_ID": "2025-276Y", "EPOCH": "2025-12-25T12:54:40.837824", "MEAN_MOTION": 15.17117879, "ECCENTRICITY": 0.0003764, "INCLINATION": 97.4426, "RA_OF_ASC_NODE": 71.0715, "ARG_OF_PERICENTER": 234.2435, "MEAN_ANOMALY": 125.8449, "EPHEMERIS_TYPE": 0, "CLASSIFICATION_TYPE": "U", "NORAD_CAT_ID": 66688, "ELEMENT_SET_NO": 999, "REV_AT_EPOCH": 406, "BSTAR": 0.00056854, "MEAN_MOTION_DOT": 0.00011216, "MEAN_MOTION_DDOT": 0}, "tle": {"line1": "1 66688U 25276Y   25359.53797266  .00011216  00000+0  56854-3 0  9996", "line2": "2 66688  97.4426  71.0715 0003764 234.2435 125.8449 15.17117879  4062"}}, "geometry": {"type": "Point", "coordinates": [-115.9587938185862, -46.944581519460165]}}, {"type": "Feature", "properties": {"norad_id": 66689, "name": "TRANSPORTER-15Z", "group": "last-30-days", "lat": 81.30376242744818, "lon": -49.12872928050159, "alt_km": 444.49645076815796, "timestamp": "2025-12-26T13:39:17.664291+00:00", "meta": {"OBJECT_NAME": "TRANSPORTER-15Z", "OBJECT_ID": "2025-276Z", "EPOCH": "2025-12-22T21:27:46.425312", "MEAN_MOTION": 15.23073772, "ECCENTRICITY": 0.00272271, "INCLINATION": 97.4409, "RA_OF_ASC_NODE": 68.4858, "ARG_OF_PERICENTER": 260.8557, "MEAN_ANOMALY": 98.9599, "EPHEMERIS_TYPE": 0, "CLASSIFICATION_TYPE": "U", "NORAD_CAT_ID": 66689, "ELEMENT_SET_NO": 999, "REV_AT_EPOCH": 366, "BSTAR": 0.086131248, "MEAN_MOTION_DOT": 0.02294864, "MEAN_MOTION_DDOT": 0}, "tle": {"line1": "1 66689U 25276Z   25356.89428733  .02294864  00000+0  86131-1 0  9996", "line2": "2 66689  97.4409  68.4858 0027227 260.8557  98.9599 15.23073772  3663"}}, "geometry": {"type": "Point", "coordinates": [-49.12872928050159, 81.30376242744818]}}, {"type": "Feature", "properties": {"norad_id": 66690, "name": "TRANSPORTER-15AA", "group": "last-30-days", "lat": -46.28211938657139, "lon": -115.78249490386374, "alt_km": 518.878603267086, "timestamp": "2025-12-26T13:39:17.664301+00:00", "meta": {"OBJECT_NAME": "TRANSPORTER-15AA", "OBJECT_ID": "2025-276AA", "EPOCH": "2025-12-26T06:19:35.681952", "MEAN_MOTION": 15.17102796, "ECCENTRICITY": 0.00036848, "INCLINATION": 97.4387, "RA_OF_ASC_NODE": 71.7711, "ARG_OF_PERICENTER": 231.5482, "MEAN_ANOMALY": 128.5421, "EPHEMERIS_TYPE": 0, "CLASSIFICATION_TYPE": "U", "NORAD_CAT_ID": 66690, "ELEMENT_SET_NO": 999, "REV_AT_EPOCH": 417, "BSTAR": 0.00045953175, "MEAN_MOTION_DOT": 9.046e-05, "MEAN_MOTION_DDOT": 0}, "tle": {"line1": "1 66690U 25276AA  25360.26360743  .00009046  00000+0  45953-3 0  9993", "line2": "2 66690  97.4387  71.7711 0003684 231.5482 128.5421 15.17102796  4171"}}, "geometry": {"type": "Point", "coordinates": [-115.78249490386374, -46.28211938657139]}}, {"type": "Feature", "properties": {"norad_id": 66691, "name": "TRANSPORTER-15AB", "group": "last-30-days", "lat": -60.25491496870139, "lon": -121.13671382449125, "alt_km": 518.3708342213331, "timestamp": "2025-12-26T13:39:17.664311+00:00", "meta": {"OBJECT_NAME": "TRANSPORTER-15AB", "OBJECT_ID": "2025-276AB", "EPOCH": "2025-12-26T04:40:55.637760", "MEAN_MOTION": 15.1736891, "ECCENTRICITY": 0.00037841, "INCLINATION": 97.4412, "RA_OF_ASC_NODE": 71.7179, "ARG_OF_PERICENTER": 233.5315, "MEAN_ANOMALY": 126.557, "EPHEMERIS_TYPE": 0, "CLASSIFICATION_TYPE": "U", "NORAD_CAT_ID": 66691, "ELEMENT_SET_NO": 999, "REV_AT_EPOCH": 416, "BSTAR": 0.00057033489, "MEAN_MOTION_DOT": 0.00011333, "MEAN_MOTION_DDOT": 0}, "tle": {"line1": "1 66691U 25276AB  25360.19508840  .00011333  00000+0  57033-3 0  9992", "line2": "2 66691  97.4412  71.7179 0003784 233.5315 126.5570 15.17368910  4161"}}, "geometry": {"type": "Point", "coordinates": [-121.13671382449125, -60.25491496870139]}}, {"type": "Feature", "properties": {"norad_id": 66692, "name": "TRANSPORTER-15AC", "group": "last-30-days", "lat": -77.03063550621414, "lon": -142.48067404711284, "alt_km": 519.7049879255455, "timestamp": "2025-12-26T13:39:17.664321+00:00", "meta": {"OBJECT_NAME": "TRANSPORTER-15AC", "OBJECT_ID": "2025-276AC", "EPOCH": "2025-12-26T04:36:08.314560", "MEAN_MOTION": 15.17447229, "ECCENTRICITY": 0.00017803, "INCLINATION": 97.4413, "RA_OF_ASC_NODE": 71.7258, "ARG_OF_PERICENTER": 246.4774, "MEAN_ANOMALY": 113.6272, "EPHEMERIS_TYPE": 0, "CLASSIFICATION_TYPE": "U", "NORAD_CAT_ID": 66692, "ELEMENT_SET_NO": 999, "REV_AT_EPOCH": 416, "BSTAR": 0.00030393663, "MEAN_MOTION_DOT": 6.017e-05, "MEAN_MOTION_DDOT": 0}, "tle": {"line1": "1 66692U 25276AC  25360.19176290  .00006017  00000+0  30394-3 0  9997", "line2": "2 66692  97.4413  71.7258 0001780 246.4774 113.6272 15.17447229  4164"}}, "geometry": {"type": "Point", "coordinates": [-142.48067404711284, -77.03063550621414]}}, {"type": "Feature", "properties": {"norad_id": 66693, "name": "TRANSPORTER-15AD", "group": "last-30-days", "lat": -79.16097604887072, "lon": -150.94020334412875, "alt_km": 517.8633063047482, "timestamp": "2025-12-26T13:39:17.664330+00:00", "meta": {"OBJECT_NAME": "TRANSPORTER-15AD", "OBJECT_ID": "2025-276AD", "EPOCH": "2025-12-26T06:10:26.609952", "MEAN_MOTION": 15.17714122, "ECCENTRICITY": 0.00032262, "INCLINATION": 97.4367, "RA_OF_ASC_NODE": 71.77, "ARG_OF_PERICENTER": 258.9833, "MEAN_ANOMALY": 101.1038, "EPHEMERIS_TYPE": 0, "CLASSIFICATION_TYPE": "U", "NORAD_CAT_ID": 66693, "ELEMENT_SET_NO": 999, "REV_AT_EPOCH": 417, "BSTAR": 0.0007483531, "MEAN_MOTION_DOT": 0.00015046, "MEAN_MOTION_DDOT": 0}, "tle": {"line1": "1 66693U 25276AD  25360.25725243  .00015046  00000+0  74835-3 0  9993", "line2": "2 66693  97.4367  71.7700 0003226 258.9833 101.1038 15.17714122  4178"}}, "geometry": {"type": "Point", "coordinates": [-150.94020334412875, -79.16097604887072]}}, {"type": "Feature", "properties": {"norad_id": 66694, "name": "YAM-9", "group": "last-30-days", "lat": -82.50173293637383, "lon": 155.3165246081899, "alt_km": 519.5807298512573, "timestamp": "2025-12-26T13:39:17.664340+00:00", "meta": {"OBJECT_NAME": "YAM-9", "OBJECT_ID": "2025-276AE", "EPOCH": "2025-12-26T06:08:06.045792", "MEAN_MOTION": 15.17620639, "ECCENTRICITY": 0.00014604, "INCLINATION": 97.4413, "RA_OF_ASC_NODE": 71.7885, "ARG_OF_PERICENTER": 234.9682, "MEAN_ANOMALY": 125.1415, "EPHEMERIS_TYPE": 0, "CLASSIFICATION_TYPE": "U", "NORAD_CAT_ID": 66694, "ELEMENT_SET_NO": 999, "REV_AT_EPOCH": 417, "BSTAR": 0.00050628216, "MEAN_MOTION_DOT": 0.00010122, "MEAN_MOTION_DDOT": 0}, "tle": {"line1": "1 66694U 25276AE  25360.25562553  .00010122  00000+0  50628-3 0  9991", "line2": "2 66694  97.4413  71.7885 0001460 234.9682 125.1415 15.17620639  4173"}}, "geometry": {"type": "Point", "coordinates": [155.3165246081899, -82.50173293637383]}}, {"type": "Feature", "properties": {"norad_id": 66695, "name": "IRIDE FM1", "group": "last-30-days", "lat": -22.136997755183078, "lon": 75.1672535927561, "alt_km": 517.0730233586382, "timestamp": "2025-12-26T13:39:17.664355+00:00", "meta": {"OBJECT_NAME": "IRIDE FM1", "OBJECT_ID": "2025-276AF", "EPOCH": "2025-12-26T04:15:46.412064", "MEAN_MOTION": 15.18318094, "ECCENTRICITY": 0.00012847, "INCLINATION": 97.4385, "RA_OF_ASC_NODE": 71.7357, "ARG_OF_PERICENTER": 125.5692, "MEAN_ANOMALY": 234.5662, "EPHEMERIS_TYPE": 0, "CLASSIFICATION_TYPE": "U", "NORAD_CAT_ID": 66695, "ELEMENT_SET_NO": 999, "REV_AT_EPOCH": 416, "BSTAR": 0.00088332893, "MEAN_MOTION_DOT": 0.00018088, "MEAN_MOTION_DDOT": 0}, "tle": {"line1": "1 66695U 25276AF  25360.17762051  .00018088  00000+0  88333-3 0  9991", "line2": "2 66695  97.4385  71.7357 0001284 125.5692 234.5662 15.18318094  4164"}}, "geometry": {"type": "Point", "coordinates": [75.1672535927561, -22.136997755183078]}}, {"type": "Feature", "properties": {"norad_id": 66696, "name": "IRIDE FM2", "group": "last-30-days", "lat": -73.75324213675033, "lon": -134.55655651771855, "alt_km": 519.1543879725305, "timestamp": "2025-12-26T13:39:17.664368+00:00", "meta": {"OBJECT_NAME": "IRIDE FM2", "OBJECT_ID": "2025-276AG", "EPOCH": "2025-12-26T06:12:06.572160", "MEAN_MOTION": 15.17458783, "ECCENTRICITY": 0.00024662, "INCLINATION": 97.4383, "RA_OF_ASC_NODE": 71.7749, "ARG_OF_PERICENTER": 249.6402, "MEAN_ANOMALY": 110.4567, "EPHEMERIS_TYPE": 0, "CLASSIFICATION_TYPE": "U", "NORAD_CAT_ID": 66696, "ELEMENT_SET_NO": 999, "REV_AT_EPOCH": 417, "BSTAR": 0.00034274955, "MEAN_MOTION_DOT": 6.797e-05, "MEAN_MOTION_DDOT": 0}, "tle": {"line1": "1 66696U 25276AG  25360.25840940  .00006797  00000+0  34275-3 0  9995", "line2": "2 66696  97.4383  71.7749 0002466 249.6402 110.4567 15.17458783  4174"}}, "geometry": {"type": "Point", "coordinates": [-134.55655651771855, -73.75324213675033]}}]}